[{"OBJECT_NAME":"STARLINK-32391","OBJECT_ID":"2024-202L","EPOCH":"2026-03-09T12:28:16.329216","MEAN_MOTION":15.27594358,"ECCENTRICITY":0.00024183,"INCLINATION":43.0046,"RA_OF_ASC_NODE":238.7795,"ARG_OF_PERICENTER":308.2323,"MEAN_ANOMALY":51.8311,"EPHEMERIS_TYPE":0,"CLASSIFICATION_TYPE":"U","NORAD_CAT_ID":61855,"ELEMENT_SET_NO":999,"REV_AT_EPOCH":7530,"BSTAR":-0.0002050578,"MEAN_MOTION_DOT":-5.904e-5,"MEAN_MOTION_DDOT":0},{"OBJECT_NAME":"TRANSPORTER-12 OBJECT AZ","OBJECT_ID":"2025-009AZ","EPOCH":"2026-03-09T17:02:46.667040","MEAN_MOTION":15.30349724,"ECCENTRICITY":9.87e-5,"INCLINATION":97.3981,"RA_OF_ASC_NODE":151.9913,"ARG_OF_PERICENTER":45.3581,"MEAN_ANOMALY":314.774,"EPHEMERIS_TYPE":0,"CLASSIFICATION_TYPE":"U","NORAD_CAT_ID":62656,"ELEMENT_SET_NO":999,"REV_AT_EPOCH":6379,"BSTAR":0.00054902545,"MEAN_MOTION_DOT":0.00016057,"MEAN_MOTION_DDOT":0}]
